NORAD_CAT_ID,OBJECT_NAME,OBJECT_TYPE,EPOCH,MEAN_MOTION,ECCENTRICITY,INCLINATION,RA_OF_ASC_NODE,ARG_OF_PERICENTER,MEAN_ANOMALY,BSTAR,MEAN_MOTION_DOT,MEAN_MOTION_DDOT,TLE_LINE0,TLE_LINE1,TLE_LINE2,SEMIMAJOR_AXIS,PERIOD,APOGEE,PERIGEE,DECAYED
56818.0,STARLINK-6028,PAYLOAD,2024-01-13 20:26:19,14.98334779,0.0002423,69.9998,165.6548,271.0429,89.0453,0.00028644,3.327e-05,0.0,0 STARLINK-6028,1 56818U 23078BD  24013.85161586  .00003327  00000-0  28644-3 0  9990,2 56818  69.9998 165.6548 0002423 271.0429  89.0453 14.98334779 35238,6950.178,96.107,573.727,570.359,0.0
56818.0,STARLINK-6028,PAYLOAD,2024-01-14 12:27:41,14.9832734,0.000209,70.0008,163.9732,261.0267,99.0656,3.3074e-05,3.02e-06,0.0,0 STARLINK-6028,1 56818U 23078BD  24014.51922735  .00000302  00000-0  33074-4 0  9999,2 56818  70.0008 163.9732 0002090 261.0267  99.0656 14.98327340 35331,6950.201,96.107,573.519,570.614,0.0
56818.0,STARLINK-6028,PAYLOAD,2024-01-14 14:03:49,14.98327404,0.0002093,70.0009,163.8049,260.97,99.1222,3.2606e-05,2.96e-06,0.0,0 STARLINK-6028,1 56818U 23078BD  24014.58598743  .00000296  00000-0  32606-4 0  9996,2 56818  70.0009 163.8049 0002093 260.9700  99.1222 14.98327404 35774,6950.201,96.107,573.521,570.611,0.0
56818.0,STARLINK-6028,PAYLOAD,2024-01-14 20:28:21,14.98329772,0.0002105,70.0008,163.1314,258.5245,101.5677,5.0008e-05,5.04e-06,0.0,0 STARLINK-6028,1 56818U 23078BD  24014.85302543  .00000504  00000-0  50008-4 0  9995,2 56818  70.0008 163.1314 0002105 258.5245 101.5677 14.98329772 35819,6950.194,96.107,573.522,570.596,0.0
56818.0,STARLINK-6028,PAYLOAD,2024-01-15 12:29:41,14.98336992,0.0002096,70.0016,161.4504,239.3532,120.742,-4.9393e-05,-6.82e-06,0.0,0 STARLINK-6028,1 56818U 23078BD  24015.52062112 -.00000682  00000-0 -49393-4 0  9999,2 56818  70.0016 161.4504 0002096 239.3532 120.7420 14.98336992 35489,6950.171,96.107,573.493,570.58,0.0
56818.0,STARLINK-6028,PAYLOAD,2024-01-15 14:05:49,14.98336168,0.0002115,70.0015,161.2819,240.7554,119.3394,-6.1469e-05,-8.26e-06,0.0,0 STARLINK-6028,1 56818U 23078BD  24015.58738165 -.00000826  00000-0 -61469-4 0  9991,2 56818  70.0015 161.2819 0002115 240.7554 119.3394 14.98336168 35925,6950.174,96.107,573.509,570.569,0.0
56818.0,STARLINK-6028,PAYLOAD,2024-01-15 18:54:13,14.98336417,0.0002121,70.0011,160.7762,244.3665,115.7275,-4.956e-05,-6.84e-06,0.0,0 STARLINK-6028,1 56818U 23078BD  24015.78766058 -.00000684  00000-0 -49560-4 0  9995,2 56818  70.0011 160.7762 0002121 244.3665 115.7275 14.98336417 35950,6950.173,96.107,573.512,570.564,0.0
56818.0,STARLINK-6028,PAYLOAD,2024-01-16 12:31:42,14.98332882,0.0002044,70.0017,158.9237,244.5339,115.5609,0.00011921,1.33e-05,0.0,0 STARLINK-6028,1 56818U 23078BD  24016.52201637  .00001330  00000-0  11921-3 0  9991,2 56818  70.0017 158.9237 0002044 244.5339 115.5609 14.98332882 35632,6950.184,96.107,573.47,570.628,0.0
56818.0,STARLINK-6028,PAYLOAD,2024-01-16 14:07:50,14.98333825,0.0002039,70.0016,158.7557,245.051,115.0438,0.00010974,1.217e-05,0.0,0 STARLINK-6028,1 56818U 23078BD  24016.58877623  .00001217  00000-0  10974-3 0  9992,2 56818  70.0016 158.7557 0002039 245.0510 115.0438 14.98333825 36077,6950.181,96.107,573.463,570.629,0.0
56818.0,STARLINK-6028,PAYLOAD,2024-01-16 18:56:13,14.98342966,0.0002331,70.0009,158.2506,255.9869,104.1031,0.00016274,1.85e-05,0.0,0 STARLINK-6028,1 56818U 23078BD  24016.78904799  .00001850  00000-0  16274-3 0  9991,2 56818  70.0009 158.2506 0002331 255.9869 104.1031 14.98342966 35679,6950.153,96.106,573.638,570.398,0.0
56818.0,STARLINK-6028,PAYLOAD,2024-01-17 10:57:35,14.98327031,0.0002673,70.0001,156.5663,262.524,97.5615,-6.2377e-05,-8.37e-06,0.0,0 STARLINK-6028,1 56818U 23078BD  24017.45666243 -.00000837  00000-0 -62377-4 0  9997,2 56818  70.0001 156.5663 0002673 262.5240  97.5615 14.98327031 35772,6950.202,96.107,573.925,570.209,0.0
56818.0,STARLINK-6028,PAYLOAD,2024-01-17 14:09:51,14.9832798,0.000274,69.9996,156.2296,266.2331,93.8514,-7.6408e-05,-1.004e-05,0.0,0 STARLINK-6028,1 56818U 23078BD  24017.59018224 -.00001004  00000-0 -76408-4 0  9999,2 56818  69.9996 156.2296 0002740 266.2331  93.8514 14.98327980 36229,6950.199,96.107,573.968,570.16,0.0
56818.0,STARLINK-6028,PAYLOAD,2024-01-17 18:58:16,14.9832661,0.0002662,70.0002,155.7253,263.2991,96.7865,-6.3123e-05,-8.46e-06,0.0,0 STARLINK-6028,1 56818U 23078BD  24017.79046333 -.00000846  00000-0 -63123-4 0  9996,2 56818  70.0002 155.7253 0002662 263.2991  96.7865 14.98326610 36252,6950.203,96.107,573.919,570.218,0.0
56818.0,STARLINK-6028,PAYLOAD,2024-01-18 10:59:36,14.9833509,0.0002834,70.0,154.0418,266.4864,93.5971,-0.00012179,-1.546e-05,0.0,0 STARLINK-6028,1 56818U 23078BD  24018.45806139 -.00001546  00000-0 -12179-3 0  9990,2 56818  70.0000 154.0418 0002834 266.4864  93.5971 14.98335090 35928,6950.177,96.107,574.012,570.072,0.0
56818.0,STARLINK-6028,PAYLOAD,2024-01-18 14:11:52,14.98334262,0.0002765,70.0003,153.7055,265.0357,95.0487,-9.5032e-05,-1.227e-05,0.0,0 STARLINK-6028,1 56818U 23078BD  24018.59158079 -.00001227  00000-0 -95032-4 0  9994,2 56818  70.0003 153.7055 0002765 265.0357  95.0487 14.98334262 36378,6950.18,96.107,573.966,570.123,0.0
56818.0,STARLINK-6028,PAYLOAD,2024-01-18 19:00:16,14.98339687,0.0002757,70.0004,153.2023,264.8285,95.2559,-4.7424e-05,-6.59e-06,0.0,0 STARLINK-6028,1 56818U 23078BD  24018.79185520 -.00000659  00000-0 -47424-4 0  9997,2 56818  70.0004 153.2023 0002757 264.8285  95.2559 14.98339687 36409,6950.163,96.106,573.944,570.112,0.0
56818.0,STARLINK-6028,PAYLOAD,2024-01-19 11:01:37,14.98325229,0.0002581,70.001,151.5179,271.9048,88.1815,0.00010272,1.133e-05,0.0,0 STARLINK-6028,1 56818U 23078BD  24019.45946008  .00001133  00000-0  10272-3 0  9993,2 56818  70.0010 151.5179 0002581 271.9048  88.1815 14.98325229 36076,6950.208,96.107,573.866,570.279,0.0
56818.0,STARLINK-6028,PAYLOAD,2024-01-19 12:37:45,14.98325463,0.0002579,70.001,151.3496,272.1289,87.9575,0.00010317,1.138e-05,0.0,0 STARLINK-6028,1 56818U 23078BD  24019.52622005  .00001138  00000-0  10317-3 0  9994,2 56818  70.0010 151.3496 0002579 272.1289  87.9575 14.98325463 36512,6950.207,96.107,573.864,570.279,0.0
56818.0,STARLINK-6028,PAYLOAD,2024-01-19 19:02:17,14.98329937,0.0002558,70.0012,150.6761,273.9035,86.1832,0.00014577,1.647e-05,0.0,0 STARLINK-6028,1 56818U 23078BD  24019.79325663  .00001647  00000-0  14577-3 0  9990,2 56818  70.0012 150.6761 0002558 273.9035  86.1832 14.98329937 36557,6950.193,96.107,573.836,570.28,0.0
56818.0,STARLINK-6028,PAYLOAD,2024-01-20 11:03:38,14.98327231,0.0002404,70.0016,148.9931,269.5802,90.5081,-2.1201e-05,-3.46e-06,0.0,0 STARLINK-6028,1 56818U 23078BD  24020.46086343 -.00000346  00000-0 -21201-4 0  9995,2 56818  70.0016 148.9931 0002404 269.5802  90.5081 14.98327231 36227,6950.201,96.107,573.737,570.396,0.0
56818.0,STARLINK-6028,PAYLOAD,2024-01-20 14:15:54,14.98324824,0.0002403,70.0017,148.6564,267.6384,92.45,3.3191e-06,-5.3e-07,0.0,0 STARLINK-6028,1 56818U 23078BD  24020.59438439 -.00000053  00000-0  33191-5 0  9992,2 56818  70.0017 148.6564 0002403 267.6384  92.4500 14.98324824 36671,6950.209,96.107,573.744,570.404,0.0
56818.0,STARLINK-6028,PAYLOAD,2024-01-20 19:04:18,14.98327118,0.000246,70.0013,148.1508,266.5719,93.5158,-1.4199e-05,-2.62e-06,0.0,0 STARLINK-6028,1 56818U 23078BD  24020.79466361 -.00000262  00000-0 -14199-4 0  9998,2 56818  70.0013 148.1508 0002460 266.5719  93.5158 14.98327118 36707,6950.202,96.107,573.777,570.357,0.0
56818.0,STARLINK-6028,PAYLOAD,2024-01-21 11:05:39,14.98330505,0.000267,70.0005,146.4669,262.6372,97.4484,-9.95e-07,-1.05e-06,0.0,0 STARLINK-6028,1 56818U 23078BD  24021.46226048 -.00000105  00000-0 -99500-6 0  9996,2 56818  70.0005 146.4669 0002670 262.6372  97.4484 14.98330505 36374,6950.191,96.107,573.912,570.201,0.0
56818.0,STARLINK-6028,PAYLOAD,2024-01-21 19:06:19,14.98334172,0.0002547,70.001,145.6257,258.3191,101.7682,6.1288e-05,6.38e-06,0.0,0 STARLINK-6028,1 56818U 23078BD  24021.79605596  .00000638  00000-0  61288-4 0  9990,2 56818  70.0010 145.6257 0002547 258.3191 101.7682 14.98334172 36854,6950.18,96.107,573.815,570.275,0.0
56818.0,STARLINK-6028,PAYLOAD,2024-01-22 11:07:40,14.98324797,0.000257,70.0014,143.943,256.3615,103.7258,2.8437e-05,2.46e-06,0.0,0 STARLINK-6028,1 56818U 23078BD  24022.46366280  .00000246  00000-0  28437-4 0  9993,2 56818  70.0014 143.9430 0002570 256.3615 103.7258 14.98324797 36524,6950.209,96.107,573.86,570.288,0.0
56818.0,STARLINK-6028,PAYLOAD,2024-01-22 17:32:12,14.98327041,0.000263,70.0018,143.2703,260.0101,100.0761,3.0323e-05,2.69e-06,0.0,0 STARLINK-6028,1 56818U 23078BD  24022.73070203  .00000269  00000-0  30323-4 0  9992,2 56818  70.0018 143.2703 0002630 260.0101 100.0761 14.98327041 36998,6950.202,96.107,573.895,570.239,0.0
56818.0,STARLINK-6028,PAYLOAD,2024-01-23 11:09:40,14.98336707,0.0002623,70.0015,141.4183,256.632,103.4547,4.5956e-05,4.56e-06,0.0,0 STARLINK-6028,1 56818U 23078BD  24023.46505435  .00000456  00000-0  45956-4 0  9999,2 56818  70.0015 141.4183 0002623 256.6320 103.4547 14.98336707 36676,6950.172,96.107,573.86,570.214,0.0
56818.0,STARLINK-6028,PAYLOAD,2024-01-23 15:58:05,14.98327832,0.0002899,70.0009,140.9126,259.1841,100.8992,-4.5527e-05,-6.36e-06,0.0,0 STARLINK-6028,1 56818U 23078BD  24023.66534206 -.00000636  00000-0 -45527-4 0  9995,2 56818  70.0009 140.9126 0002899 259.1841 100.8992 14.98327832 36709,6950.2,96.107,574.079,570.05,0.0
56818.0,STARLINK-6028,PAYLOAD,2024-01-23 17:34:13,14.98327057,0.0002944,70.0007,140.7441,261.4394,98.6432,-5.3236e-05,-7.28e-06,0.0,0 STARLINK-6028,1 56818U 23078BD  24023.73210269 -.00000728  00000-0 -53236-4 0  9991,2 56818  70.0007 140.7441 0002944 261.4394  98.6432 14.98327057 37146,6950.202,96.107,574.113,570.021,0.0
56818.0,STARLINK-6028,PAYLOAD,2024-01-24 11:11:42,14.98322571,0.0003095,70.0005,138.8943,265.3975,94.683,-8.5218e-05,-1.109e-05,0.0,0 STARLINK-6028,1 56818U 23078BD  24024.46646977 -.00001109  00000-0 -85218-4 0  9990,2 56818  70.0005 138.8943 0003095 265.3975  94.6830 14.98322571 36823,6950.216,96.107,574.232,569.93,0.0
